[{"OBJECT_NAME":"STARLINK-3459","OBJECT_ID":"2022-016AV","EPOCH":"2026-03-09T22:13:54.539616","MEAN_MOTION":15.08836822,"ECCENTRICITY":0.00012682,"INCLINATION":53.2177,"RA_OF_ASC_NODE":308.071,"ARG_OF_PERICENTER":84.3561,"MEAN_ANOMALY":275.7576,"EPHEMERIS_TYPE":0,"CLASSIFICATION_TYPE":"U","NORAD_CAT_ID":51757,"ELEMENT_SET_NO":999,"REV_AT_EPOCH":22374,"BSTAR":7.9981942e-5,"MEAN_MOTION_DOT":9.85e-6,"MEAN_MOTION_DDOT":0},{"OBJECT_NAME":"OBJECT E","OBJECT_ID":"2025-292E","EPOCH":"2026-03-09T23:06:13.350528","MEAN_MOTION":15.05603019,"ECCENTRICITY":0.00142209,"INCLINATION":97.6388,"RA_OF_ASC_NODE":145.6972,"ARG_OF_PERICENTER":344.4497,"MEAN_ANOMALY":15.6291,"EPHEMERIS_TYPE":0,"CLASSIFICATION_TYPE":"U","NORAD_CAT_ID":66997,"ELEMENT_SET_NO":999,"REV_AT_EPOCH":1350,"BSTAR":0.00040225725,"MEAN_MOTION_DOT":5.752e-5,"MEAN_MOTION_DDOT":0}]
